LDPE-2                  
1 54219U 22144A   26198.33447487  .00000004  00000+0  00000+0 0  9992
2 54219   5.6696  63.2911 0002486 109.8930 113.9269  1.00544505 12140
EUTELSAT HOTBIRD 13G    
1 54225U 22146A   26198.73457450  .00000000  00000+0  00000+0 0  9992
2 54225   0.0166 222.9360 0002010 313.0901  36.9871  1.00270382  7775
ZHONGXING-19            
1 54230U 22148A   26198.94176082  .00000000  00000+0  00000+0 0  9992
2 54230   0.0228  67.7390 0003219  66.7480 303.4921  1.00270033 13682
GALAXY 31 (G-31)        
1 54243U 22153A   26198.88543631  .00000004  00000+0  00000+0 0  9997
2 54243   0.0190  93.6582 0001092  25.4002  14.3746  1.00272045  7449
GALAXY 32 (G-32)        
1 54244U 22153B   26198.82020775 -.00000183  00000+0  00000+0 0  9990
2 54244   0.0116  50.5444 0001388 355.9350  93.4244  1.00272394 13458
EUTELSAT 10B            
1 54259U 22157A   26198.55491469  .00000058  00000+0  00000+0 0  9992
2 54259   0.0610  95.5067 0001588  12.3958  37.1964  1.00266999 13338
GALAXY 35 (G-35)        
1 54741U 22170A   26198.81977442 -.00000171  00000+0  00000+0 0  9999
2 54741   0.0137  91.0268 0001866  25.2385  21.3699  1.00272222 13200
GALAXY 36 (G-36)        
1 54742U 22170B   26198.82046775 -.00000194  00000+0  00000+0 0  9992
2 54742   0.0170 141.2540 0002614 317.2384  43.5043  1.00271807 13087
METEOSAT-12 (MTG-I1)    
1 54743U 22170C   26198.83737744 -.00000018  00000+0  00000+0 0  9992
2 54743   0.7280  20.2075 0003922  81.4619 135.0801  1.00268483 13287
SHIJIAN-23 (SJ-23)      
1 55131U 23002A   26198.77155957 -.00000366  00000+0  00000+0 0  9998
2 55131   3.7942  77.9273 0003413 273.2206 349.4961  1.00075758 12811
APSTAR-6E               
1 55239U 23005A   26199.00500531  .00000000  00000+0  00000+0 0  9993
2 55239   0.0151 258.2596 0002610 295.1588 238.1914  1.00269989 18996
USA 342                 
1 55263U 23008A   26196.34785685  .00000000  00000+0  00000+0 0  9992
2 55263   0.0068  33.1422 0000237  23.5747  25.6345  1.00268904 12796
LDPE-3A                 
1 55264U 23008B   26198.95946273 -.00000269  00000+0  00000+0 0  9992
2 55264   2.4264  81.2836 0001575  73.6328 252.8804  0.99149151 12110
ELEKTRO-L 4             
1 55506U 23016A   26198.71851954 -.00000068  00000+0  00000+0 0  9992
2 55506   0.1143 278.5400 0001550 257.1505 184.2905  1.00270706 12649
AMAZONAS NEXUS          
1 55508U 23017A   26198.54096127 -.00000292  00000+0  00000+0 0  9998
2 55508   0.0358  45.2576 0004430  42.1268 341.7092  1.00269616  7345
ZHONGXING-26            
1 55686U 23023A   26198.93422079 -.00000363  00000+0  00000+0 0  9993
2 55686   0.0627  71.3781 0003334  28.9526 296.8391  1.00267622 12534
LUCH-5X (OLYMP-K 2)     
1 55841U 23031A   26198.77258358  .00000023  00000+0  00000+0 0  9996
2 55841   0.0281  94.9892 0001133 207.6590 333.0511  1.00279165 12240
GAOFEN-13 02            
1 55912U 23036A   26198.79627881 -.00000227  00000+0  00000+0 0  9990
2 55912   1.0289   4.9394 0003647 337.4920  28.0928  1.00273965 12398
SES-18                  
1 55970U 23038A   26198.60393409 -.00000110  00000+0  00000+0 0  9993
2 55970   0.0467 248.0546 0000769 313.5372 208.1402  1.00270494 12401
SES-19                  
1 55971U 23038B   26198.74019380  .00000079  00000+0  00000+0 0  9995
2 55971   0.0504 266.8972 0001567 213.0873 307.1159  1.00270788 12395
INTELSAT 40E (IS-40E)   
1 56174U 23052A   26198.82020775 -.00000183  00000+0  00000+0 0  9993
2 56174   0.0133  93.4927 0002293  50.3606 356.0519  1.00271639 12137
VIASAT-3 F1             
1 56370U 23060A   26198.60670743  .00000000  00000+0  00000+0 0  9999
2 56370   0.0125  30.8912 0000673  60.7227 333.2635  1.00270816 11736
ARCTURUS                
1 56371U 23060B   26198.94192029 -.00000357  00000+0  00000+0 0  9999
2 56371   2.8507  79.5572 0001156 132.4210 165.0766  1.00593461 11762
GS-1                    
1 56372U 23060C   26198.78457875 -.00000232  00000+0  00000+0 0  9997
2 56372   2.8015  79.4677 0003344 280.0809 307.7517  1.00266033  7842
BEIDOU-3 G4             
1 56564U 23066A   26198.93716747 -.00000289  00000+0  00000+0 0  9991
2 56564   0.4580 339.7726 0004965 185.3706 248.0522  1.00271768 11700
ARABSAT-7B (BADR-8)     
1 56757U 23075A   26198.83933672  .00000135  00000+0  00000+0 0  9991
2 56757   0.0726  29.6269 0003398   2.1474 232.0280  1.00271101 11420
NVS-01 (IRNSS-1J)       
1 56759U 23076A   26198.93508747 -.00000344  00000+0  00000+0 0  9999
2 56759   2.0949 242.9457 0003080  20.1968 138.6592  1.00277341 11425
NUSANTARA TIGA (SATRIA) 
1 57045U 23086A   26198.54697394 -.00000245  00000+0  00000+0 0  9993
2 57045   0.0360  16.4967 0002101 320.1785 301.5827  1.00268024 10061
H2SAT (HEINRICH HERTZ)  
1 57213U 23093A   26198.41057824 -.00000008  00000+0  00000+0 0  9999
2 57213   0.0264 100.9600 0000091 319.8743  22.8857  1.00271511 11218
SYRACUSE 4B             
1 57214U 23093B   26198.76565838 -.00000063  00000+0  00000+0 0  9998
2 57214   0.0188  53.9922 0000246 207.9660 302.7871  1.00271697  7277
JUPITER 3 (ECHOSTAR 24) 
1 57479U 23108A   26198.44421544 -.00000160  00000+0  00000+0 0  9996
2 57479   0.0132  45.4503 0001146  72.3675 242.1733  1.00270479 10950
